40044,LEMUR-1,2014,97.45,10.0,+,97.68,Active,1,LEO,Russia,USA,Commercial,Technology Development,Dnepr,1 40044U 14033AL  24020.40748175  .00003547  00000+0  48915-3 0  9995,2 40044  97.6798 189.1887 0056858  71.4300 289.3076 14.77668089515326,14.77668089,0.0056858,LEO
41873,LEMUR-2-ANUBHAVTHAKUR,2016,92.71,10.0,+,51.67,Active,1,LEO,USA,USA,Commercial,Earth Observation,Antares,1 41873U 16062E   24020.59762680  .00049089  00000+0  76353-3 0  9995,2 41873  51.6718  96.2442 0003225 222.4485 137.6257 15.53419373398854,15.53419373,0.0003225,LEO
42781,LEMUR-2-SAM-AMELIA,2017,91.67,10.0,+,97.12,Active,1,LEO,India,USA,Commercial,Earth Observation,PSLV,1 42781U 17036S   24020.60899626  .00136008  00000+0  10593-2 0  9990,2 42781  97.1182  63.8741 0003646  18.6263 341.5134 15.71300693366771,15.71300693,0.0003646,LEO
42837,LEMUR-2-GREENBERG,2017,95.96,10.0,+,97.37,Active,1,LEO,Kazakhstan,USA,Commercial,Earth Observation,Soyuz,1 42837U 17042N   24020.46725837  .00012238  00000+0  96732-3 0  9993,2 42837  97.3707 216.5207 0013104 181.2117 178.9078 15.00722786355317,15.00722786,0.0013104,LEO
42838,LEMUR-2-ANDIS,2017,95.96,10.0,+,97.37,Active,1,LEO,Kazakhstan,USA,Commercial,Earth Observation,Soyuz,1 42838U 17042P   24020.53503340  .00010415  00000+0  82614-3 0  9994,2 42838  97.3694 216.4057 0013212 179.2841 180.8405 15.00629147355320,15.00629147,0.0013212,LEO
42839,LEMUR-2-MONSON,2017,96.0,10.0,+,97.38,Active,1,LEO,Kazakhstan,USA,Commercial,Earth Observation,Soyuz,1 42839U 17042Q   24020.48094234  .00009942  00000+0  80210-3 0  9999,2 42839  97.3766 215.9946 0010921 177.8808 182.2465 15.00012724355276,15.00012724,0.0010921,LEO
42840,LEMUR-2-FURIAUS,2017,95.99,10.0,+,97.38,Active,1,LEO,Kazakhstan,USA,Commercial,Earth Observation,Soyuz,1 42840U 17042R   24020.51580092  .00008813  00000+0  70845-3 0  9996,2 42840  97.3781 216.4618 0010315 206.1702 153.9002 15.00188294355271,15.00188294,0.0010315,LEO
42841,LEMUR-2-PETERG,2017,95.99,10.0,+,97.38,Active,1,LEO,Kazakhstan,USA,Commercial,Earth Observation,Soyuz,1 42841U 17042S   24020.49480084  .00012808  00000+0  10278-2 0  9996,2 42841  97.3821 217.7683 0009003 174.5831 185.5492 15.00168977355344,15.00168977,0.0009003,LEO
42842,LEMUR-2-DEMBITZ,2017,95.98,10.0,+,97.37,Active,1,LEO,Kazakhstan,USA,Commercial,Earth Observation,Soyuz,1 42842U 17042T   24020.47983183  .00009640  00000+0  77011-3 0  9992,2 42842  97.3736 217.7063 0011610 172.9557 187.1833 15.00392438355366,15.00392438,0.001161,LEO
42845,LEMUR-2-ZACHARY,2017,95.79,10.0,+,97.38,Active,1,LEO,Kazakhstan,USA,Commercial,Earth Observation,Soyuz,1 42845U 17042W   24020.49701987  .00013448  00000+0  99408-3 0  9992,2 42845  97.3801 217.5509 0008404 223.9176 136.1383 15.03292252355490,15.03292252,0.0008404,LEO
43182,LEMUR-2-JIN-LUEN,2018,95.48,10.0,+,97.6,Active,1,LEO,Russia,USA,Commercial,Earth Observation,Soyuz,1 43182U 18014C   24020.27021085  .00012511  00000+0  80943-3 0  9991,2 43182  97.6021 284.6634 0014484 136.4525 223.7849 15.08233523326272,15.08233523,0.0014484,LEO
43183,LEMUR-2-URAMCHANSOL,2018,95.34,10.0,+,97.6,Active,1,LEO,Russia,USA,Commercial,Earth Observation,Soyuz,1 43183U 18014D   24020.29382985  .00014024  00000+0  85593-3 0  9990,2 43183  97.6005 285.6257 0014774 125.8177 234.4427 15.10337146326331,15.10337146,0.0014774,LEO
43184,LEMUR-2-KADI,2018,95.43,10.0,+,97.59,Active,1,LEO,Russia,USA,Commercial,Earth Observation,Soyuz,1 43184U 18014E   24020.30397286  .00012036  00000+0  76423-3 0  9996,2 43184  97.5866 284.3211 0013776 114.7597 245.5066 15.08938908326282,15.08938908,0.0013776,LEO
43185,LEMUR-2-THENICKMOLO,2018,95.39,10.0,+,97.6,Active,1,LEO,Russia,USA,Commercial,Earth Observation,Soyuz,1 43185U 18014F   24020.50657785  .00015107  00000+0  94057-3 0  9997,2 43185  97.5954 285.1870 0010073 114.0813 246.1471 15.09641843326335,15.09641843,0.0010073,LEO
43882,LEMUR-2-CHRISTINAHOLT,2018,95.21,10.0,+,97.64,Active,1,LEO,Russia,USA,Commercial,Earth Observation,Soyuz,1 43882U 18111G   24020.25823187  .00020583  00000+0  11813-2 0  9994,2 43882  97.6423 292.2557 0010613 114.9361 245.2974 15.12524146277220,15.12524146,0.0010613,LEO
43883,LEMUR-2-TINYKEV,2018,95.07,10.0,+,97.62,Active,1,LEO,Russia,USA,Commercial,Earth Observation,Soyuz,1 43883U 18111H   24020.31548586  .00021474  00000+0  11572-2 0  9991,2 43883  97.6227 292.2835 0010854 111.1695 249.0698 15.14767110277304,15.1476711,0.0010854,LEO
43885,LEMUR-2-GUSTAVO,2018,95.24,10.0,+,97.64,Active,1,LEO,Russia,USA,Commercial,Earth Observation,Soyuz,1 43885U 18111K   24020.29022056  .00018892  00000+0  10992-2 0  9994,2 43885  97.6362 292.2459 0016093 116.1567 244.1321 15.11987141277249,15.11987141,0.0016093,LEO
43886,LEMUR-2-ZO,2018,95.25,10.0,+,97.63,Active,1,LEO,Russia,USA,Commercial,Earth Observation,Soyuz,1 43886U 18111L   24020.28756290  .00018211  00000+0  10639-2 0  9991,2 43886  97.6258 291.9572 0014007 131.2480 228.9959 15.11875084277251,15.11875084,0.0014007,LEO
43888,LEMUR-2-SARAHBETTYBOO,2018,95.18,10.0,+,97.67,Active,1,LEO,Russia,USA,Commercial,Earth Observation,Soyuz,1 43888U 18111N   24020.33122167  .00018545  00000+0  10534-2 0  9993,2 43888  97.6719 295.5410 0012033 158.8825 201.2905 15.12906246277319,15.12906246,0.0012033,LEO
43889,LEMUR-2-DAISY-HARPER,2018,95.09,10.0,+,97.66,Active,1,LEO,Russia,USA,Commercial,Earth Observation,Soyuz,1 43889U 18111P   24020.25520659  .00025321  00000+0  13778-2 0  9996,2 43889  97.6595 295.3288 0010405 155.6131 204.5594 15.14390119277317,15.14390119,0.0010405,LEO
44396,LEMUR-2-LILLYJO,2019,90.83,10.0,+,97.63,Active,1,LEO,Russia,USA,Commercial,Earth Observation,Soyuz,1 44396U 19038L   24020.53969961  .00298223  00000+0  11774-2 0  9990,2 44396  97.6272  20.8092 0005287 183.9613 176.1617 15.86049516252367,15.86049516,0.0005287,LEO
44403,LEMUR-2-MORAG,2019,91.9,10.0,+,97.64,Active,1,LEO,Russia,USA,Commercial,Earth Observation,Soyuz,1 44403U 19038T   24020.53323594  .00257143  00000+0  23186-2 0  9991,2 44403  97.6428  19.1804 0006090 197.4866 162.6185 15.67347218252194,15.67347218,0.000609,LEO
44405,LEMUR-2-DUSTINTHEWIND,2019,91.96,10.0,+,97.65,Active,1,LEO,Russia,USA,Commercial,Earth Observation,Soyuz,1 44405U 19038V   24020.53437784  .00178152  00000+0  16988-2 0  9994,2 44405  97.6525  18.6030 0006291 187.2583 172.8586 15.66191442252200,15.66191442,0.0006291,LEO
44407,LEMUR-2-ALEX-MADDY,2019,93.19,10.0,+,97.67,Active,1,LEO,Russia,USA,Commercial,Earth Observation,Soyuz,1 44407U 19038X   24019.90955970  .00034880  00000+0  73122-3 0  9990,2 44407  97.6700  13.8410 0011398 245.5070 114.4990 15.45262593251730,15.45262593,0.0011398,LEO
44409,LEMUR-2-EJATTA,2019,91.39,10.0,+,97.64,Active,1,LEO,Russia,USA,Commercial,Earth Observation,Soyuz,1 44409U 19038Z   24020.48793690  .00386216  00000+0  23520-2 0  9995,2 44409  97.6361  20.3144 0005266 168.8354 191.3028 15.76354425252334,15.76354425,0.0005266,LEO
44413,LEMUR-2-YNDRD,2019,92.86,-1.0,+,97.66,Active,0,LEO,Russia,USA,Unknown,Unknown,Soyuz,1 44413U 19038AD  24020.55052918  .00096126  00000+0  16399-2 0  9993,2 44413  97.6617  15.0837 0008714 227.8264 132.2248 15.50959916251908,15.50959916,0.0008714,LEO
